ION SCV-008             
1 55051U 23001AU  26068.82429008  .00008336  00000+0  31423-3 0  9992
2 55051  97.5676 163.6060 0015192   8.5420 351.6074 15.27226640176169
STARLINK-31344          
1 59171U 24044V   26068.17447794  .00004648  00000+0  17850-3 0  9997
2 59171  43.0007 110.1981 0001119 183.9546 176.1297 15.27545255113513
